[{"OBJECT_NAME":"ONEWEB-0310","OBJECT_ID":"2021-075X","EPOCH":"2026-03-09T19:44:10.768704","MEAN_MOTION":13.12444641,"ECCENTRICITY":0.00018232,"INCLINATION":87.8998,"RA_OF_ASC_NODE":10.4078,"ARG_OF_PERICENTER":80.2008,"MEAN_ANOMALY":279.9326,"EPHEMERIS_TYPE":0,"CLASSIFICATION_TYPE":"U","NORAD_CAT_ID":49096,"ELEMENT_SET_NO":999,"REV_AT_EPOCH":22215,"BSTAR":0.0014705659,"MEAN_MOTION_DOT":5.42e-6,"MEAN_MOTION_DDOT":0},{"OBJECT_NAME":"CZ-4C DEB","OBJECT_ID":"2012-029D","EPOCH":"2026-03-09T11:53:10.324032","MEAN_MOTION":13.1957689,"ECCENTRICITY":0.01306302,"INCLINATION":100.467,"RA_OF_ASC_NODE":185.3226,"ARG_OF_PERICENTER":228.0275,"MEAN_ANOMALY":130.9651,"EPHEMERIS_TYPE":0,"CLASSIFICATION_TYPE":"U","NORAD_CAT_ID":38662,"ELEMENT_SET_NO":999,"REV_AT_EPOCH":66031,"BSTAR":0.00043272861,"MEAN_MOTION_DOT":1.35e-6,"MEAN_MOTION_DDOT":0}]
